NORAD_CAT_ID,OBJECT_NAME,OBJECT_TYPE,EPOCH,MEAN_MOTION,ECCENTRICITY,INCLINATION,RA_OF_ASC_NODE,ARG_OF_PERICENTER,MEAN_ANOMALY,BSTAR,MEAN_MOTION_DOT,MEAN_MOTION_DDOT,TLE_LINE0,TLE_LINE1,TLE_LINE2,SEMIMAJOR_AXIS,PERIOD,APOGEE,PERIGEE,DECAYED
50813.0,STARLINK-3349,PAYLOAD,2022-05-31 22:00:00,15.08868725,0.0002385,53.2192,224.1817,28.2111,242.1463,-0.0038116,-0.00060491,0.0,0 STARLINK-3349,1 50813U 22001L   22151.91667824 -.00060491  00000-0 -38116-2 0  9999,2 50813  53.2192 224.1817 0002385  28.2111 242.1463 15.08868725  1305,6917.793000000002,95.436,541.307,538.008,0.0
50813.0,STARLINK-3349,PAYLOAD,2022-06-01 06:00:00,15.08843413,0.0002326,53.2193,222.6852,30.7219,251.2338,0.00011862,1.6e-05,0.0,0 STARLINK-3349,1 50813U 22001L   22152.25001157  .00001600  00000-0  11862-3 0  9993,2 50813  53.2193 222.6852 0002326  30.7219 251.2338 15.08843413 23853,6917.87,95.437,541.344,538.126,0.0
50813.0,STARLINK-3349,PAYLOAD,2022-06-01 20:00:01,15.088607,0.0002498,53.219,220.0674,28.0244,184.216,-0.0018395,-0.00029463,0.0,0 STARLINK-3349,1 50813U 22001L   22152.83334491 -.00029463  00000-0 -18395-2 0  9993,2 50813  53.2190 220.0674 0002498  28.0244 184.2160 15.08860700  1304,6917.816999999999,95.436,541.41,537.9540000000002,0.0
50813.0,STARLINK-3349,PAYLOAD,2022-06-02 15:43:49,15.08841802,0.0002401,53.2209,216.3764,27.8426,332.2694,1.5575e-05,-4e-07,0.0,0 STARLINK-3349,1 50813U 22001L   22153.65543100 -.00000040  00000-0  15575-4 0  9991,2 50813  53.2209 216.3764 0002401  27.8426 332.2694 15.08841802 24063,6917.875,95.437,541.401,538.0790000000002,0.0
50813.0,STARLINK-3349,PAYLOAD,2022-06-03 04:26:54,15.08831671,0.0002454,53.2198,213.9981,31.4592,328.6546,-2.1677e-05,-6.33e-06,0.0,0 STARLINK-3349,1 50813U 22001L   22154.18535845 -.00000633  00000-0 -21677-4 0  9996,2 50813  53.2198 213.9981 0002454  31.4592 328.6546 15.08831671 24144,6917.906,95.438,541.469,538.073,0.0
50813.0,STARLINK-3349,PAYLOAD,2022-06-03 10:48:27,15.08833139,0.0002475,53.2202,212.8085,32.0483,328.066,-9.5321e-06,-4.4e-06,0.0,0 STARLINK-3349,1 50813U 22001L   22154.45031792 -.00000440  00000-0 -95321-5 0  9992,2 50813  53.2202 212.8085 0002475  32.0483 328.0660 15.08833139 22939,6917.901,95.438,541.479,538.054,0.0
50813.0,STARLINK-3349,PAYLOAD,2022-06-03 13:59:13,15.08834654,0.0002496,53.2206,212.2142,31.3113,328.8027,-3.6893e-06,-3.47e-06,0.0,0 STARLINK-3349,1 50813U 22001L   22154.58279721 -.00000347  00000-0 -36893-5 0  9997,2 50813  53.2206 212.2142 0002496  31.3113 328.8027 15.08834654 22956,6917.897,95.438,541.488,538.035,0.0
50813.0,STARLINK-3349,PAYLOAD,2022-06-04 04:17:41,15.08839519,0.0002529,53.2205,209.5377,31.5245,328.5898,1.4968e-06,-2.65e-06,0.0,0 STARLINK-3349,1 50813U 22001L   22155.17895517 -.00000265  00000-0  14968-5 0  9997,2 50813  53.2205 209.5377 0002529  31.5245 328.5898 15.08839519 24296,6917.882,95.438,541.496,537.997,0.0
50813.0,STARLINK-3349,PAYLOAD,2022-06-04 12:14:37,15.08840412,0.000255,53.2206,208.0513,31.9621,328.1525,9.047e-06,-1.44e-06,0.0,0 STARLINK-3349,1 50813U 22001L   22155.51015451 -.00000144  00000-0  90470-5 0  9994,2 50813  53.2206 208.0513 0002550  31.9621 328.1525 15.08840412 23093,6917.879,95.438,541.508,537.98,0.0
50813.0,STARLINK-3349,PAYLOAD,2022-06-05 22:00:00,15.08827674,0.0002401,53.2188,201.7375,31.1388,53.1757,-0.00019391,-3.372e-05,0.0,0 STARLINK-3349,1 50813U 22001L   22156.91667824 -.00003372  00000-0 -19391-3 0  9994,2 50813  53.2188 201.7375 0002401  31.1388  53.1757 15.08827674 24554,6917.918000000002,95.438,541.444,538.122,0.0
50813.0,STARLINK-3349,PAYLOAD,2022-06-06 14:00:01,15.0880901,0.0002652,53.2185,198.7469,29.2589,78.2211,0.0025943,0.00041208,0.0,0 STARLINK-3349,1 50813U 22001L   22157.58334491  .00041208  00000-0  25943-2 0  9996,2 50813  53.2185 198.7469 0002652  29.2589  78.2211 15.08809010  1304,6917.975,95.44,541.675,538.005,0.0
50813.0,STARLINK-3349,PAYLOAD,2022-06-06 22:00:00,15.08816555,0.0002459,53.2186,197.2488,31.9417,87.1223,0.0016476,0.00026015,0.0,0 STARLINK-3349,1 50813U 22001L   22157.91667824  .00026015  00000-0  16476-2 0  9992,2 50813  53.2186 197.2488 0002459  31.9417  87.1223 15.08816555  1309,6917.9519999999975,95.439,541.518,538.116,0.0
50813.0,STARLINK-3349,PAYLOAD,2022-06-07 11:46:58,15.08841537,0.0002631999999999,53.2204,194.6709,33.284,326.8317,-3.3655e-05,-8.24e-06,0.0,0 STARLINK-3349,1 50813U 22001L   22158.49095533 -.00000824  00000-0 -33655-4 0  9990,2 50813  53.2204 194.6709 0002632  33.2840 326.8317 15.08841537 23540,6917.876,95.437,541.561,537.92,0.0
50813.0,STARLINK-3349,PAYLOAD,2022-06-07 14:57:44,15.08841424,0.0002642,53.2204,194.0762,33.5281,326.5878,-3.2683e-05,-8.09e-06,0.0,0 STARLINK-3349,1 50813U 22001L   22158.62343527 -.00000809  00000-0 -32683-4 0  9997,2 50813  53.2204 194.0762 0002642  33.5281 326.5878 15.08841424 24811,6917.876,95.437,541.569,537.913,0.0
50813.0,STARLINK-3349,PAYLOAD,2022-06-08 13:13:08,15.08839868,0.0002642,53.2205,189.9126,35.0158,325.1008,8.7918e-05,1.111e-05,0.0,0 STARLINK-3349,1 50813U 22001L   22159.55079185  .00001111  00000-0  87918-4 0  9992,2 50813  53.2205 189.9126 0002642  35.0158 325.1008 15.08839868 23705,6917.880999999999,95.438,541.573,537.918,0.0
50813.0,STARLINK-3349,PAYLOAD,2022-06-09 11:28:32,15.08837862,0.0002473,53.2216,185.7485,35.5716,324.5440000000001,8.9962e-06,-1.45e-06,0.0,0 STARLINK-3349,1 50813U 22001L   22160.47815434 -.00000145  00000-0  89962-5 0  9999,2 50813  53.2216 185.7485 0002473  35.5716 324.5440 15.08837862 23846,6917.887,95.438,541.4630000000002,538.0409999999998,0.0
50813.0,STARLINK-3349,PAYLOAD,2022-06-10 01:47:01,15.08837247,0.0002537,53.2213,183.0731,36.1508,323.9656,-0.00013974,-2.512e-05,0.0,0 STARLINK-3349,1 50813U 22001L   22161.07432304 -.00002512  00000-0 -13974-3 0  9996,2 50813  53.2213 183.0731 0002537  36.1508 323.9656 15.08837247 25183,6917.889,95.438,541.509,537.999,0.0
50813.0,STARLINK-3349,PAYLOAD,2022-06-10 11:19:20,15.08835962,0.0002732,53.2192,181.2908,35.9865,324.1311,-1.7895e-05,-5.73e-06,0.0,0 STARLINK-3349,1 50813U 22001L   22161.47176036 -.00000573  00000-0 -17895-4 0  9999,2 50813  53.2192 181.2908 0002732  35.9865 324.1311 15.08835962 23995,6917.893,95.438,541.648,537.868,0.0
50813.0,STARLINK-3349,PAYLOAD,2022-06-11 04:48:34,15.08845453,0.0002751,53.22,178.0199,36.3368,323.7811,-0.00014475,-2.592e-05,0.0,0 STARLINK-3349,1 50813U 22001L   22162.20040204 -.00002592  00000-0 -14475-3 0  9991,2 50813  53.2200 178.0199 0002751  36.3368 323.7811 15.08845453 25353,6917.864000000001,95.437,541.632,537.826,0.0
50813.0,STARLINK-3349,PAYLOAD,2022-06-11 11:10:09,15.08742309,0.0003325,53.22,176.831,45.161,314.9652,0.0012417,0.00019477,0.0,0 STARLINK-3349,1 50813U 22001L   22162.46538350  .00019477  00000-0  12417-2 0  9994,2 50813  53.2200 176.8310 0003325  45.1610 314.9652 15.08742309 25395,6918.179,95.444,542.344,537.744,0.0
50813.0,STARLINK-3349,PAYLOAD,2022-06-11 17:31:40,15.08831293,0.0002822,53.2201,175.6414,37.3755,322.7433,7.454e-05,8.98e-06,0.0,0 STARLINK-3349,1 50813U 22001L   22162.73032494  .00000898  00000-0  74540-4 0  9996,2 50813  53.2201 175.6414 0002822  37.3755 322.7433 15.08831293 25432,6917.906999999997,95.438,541.724,537.82,0.0
50813.0,STARLINK-3349,PAYLOAD,2022-06-12 09:25:31,15.08834931,0.0002865,53.2203,172.6679,38.8543,321.2655,7.5042e-05,9.06e-06,0.0,0 STARLINK-3349,1 50813U 22001L   22163.39272621  .00000906  00000-0  75042-4 0  9995,2 50813  53.2203 172.6679 0002865  38.8543 321.2655 15.08834931 24286,6917.896,95.438,541.743,537.779,0.0
50813.0,STARLINK-3349,PAYLOAD,2022-06-12 17:22:27,15.08836598,0.0002888,53.2204,171.1813,39.4743,320.6459,8.0933e-05,1e-05,0.0,0 STARLINK-3349,1 50813U 22001L   22163.72392630  .00001000  00000-0  80933-4 0  9996,2 50813  53.2204 171.1813 0002888  39.4743 320.6459 15.08836598 24337,6917.891,95.438,541.754,537.758,0.0
50813.0,STARLINK-3349,PAYLOAD,2022-06-13 04:30:09,15.08840647,0.0002908,53.2203,169.0998,40.2785,319.8422,8.3022e-05,1.033e-05,0.0,0 STARLINK-3349,1 50813U 22001L   22164.18760511  .00001033  00000-0  83022-4 0  9992,2 50813  53.2203 169.0998 0002908  40.2785 319.8422 15.08840647 25651,6917.878000000002,95.438,541.755,537.732,0.0
50813.0,STARLINK-3349,PAYLOAD,2022-06-13 09:16:18,15.08842323,0.000293,53.2203,168.2078,40.7306,319.3905,9.4707e-05,1.219e-05,0.0,0 STARLINK-3349,1 50813U 22001L   22164.38632395  .00001219  00000-0  94707-4 0  9990,2 50813  53.2203 168.2078 0002930  40.7306 319.3905 15.08842323 24439,6917.873000000001,95.437,541.765,537.711,0.0
50813.0,STARLINK-3349,PAYLOAD,2022-06-13 17:13:13,15.08843911,0.0002954,53.2204,166.7211,41.34,318.7815,9.9046e-05,1.288e-05,0.0,0 STARLINK-3349,1 50813U 22001L   22164.71752255  .00001288  00000-0  99046-4 0  9992,2 50813  53.2204 166.7211 0002954  41.3400 318.7815 15.08843911 24482,6917.868,95.437,541.7769999999998,537.69,0.0
50813.0,STARLINK-3349,PAYLOAD,2022-06-14 09:07:04,15.08851,0.0002981,53.2204,163.7475,42.7569,317.3655,0.00013144,1.805e-05,0.0,0 STARLINK-3349,1 50813U 22001L   22165.37991720  .00001805  00000-0  13144-3 0  9996,2 50813  53.2204 163.7475 0002981  42.7569 317.3655 15.08851000 25837,6917.847,95.437,541.774,537.65,0.0
50813.0,STARLINK-3349,PAYLOAD,2022-06-14 17:04:00,15.08852826,0.0003002,53.2204,162.261,43.4349,316.6879,0.00013689,1.892e-05,0.0,0 STARLINK-3349,1 50813U 22001L   22165.71111385  .00001892  00000-0  13689-3 0  9995,2 50813  53.2204 162.2610 0003002  43.4349 316.6879 15.08852826 24635,6917.840999999999,95.437,541.783,537.629,0.0
50813.0,STARLINK-3349,PAYLOAD,2022-06-15 04:11:42,15.08842941,0.0003,53.2203,160.1794,45.8991,314.2248,2.9161e-05,1.76e-06,0.0,0 STARLINK-3349,1 50813U 22001L   22166.17480120  .00000176  00000-0  29161-4 0  9999,2 50813  53.2203 160.1794 0003000  45.8991 314.2248 15.08842941 25958,6917.871,95.437,541.812,537.661,0.0
